STARLINK-1544_new
1 16031C 20055E   21326.13940560 -.00016666  00000-0 -11163-2 0  3263
2 16031  53.0540 328.1169 0001673  50.8006 242.9005 15.06424668    14
STARLINK-1544_old
1 26031C 20055E   21325.17881690  .00000248  00000-0  16630-4 0  3256
2 26031  53.0535 332.4294 0001614  52.0306  69.4721 15.06400637    14
